STARLINK-1945
1 26775C 20074AN  21325.10919897  .00574375  00000-0  77628-2 0  3255
2 26775  53.0544 175.5297 0001482  54.4019 168.6153 15.56550105    10
